OBJECT_NAME,OBJECT_ID,EPOCH,MEAN_MOTION,ECCENTRICITY,INCLINATION,RA_OF_ASC_NODE,ARG_OF_PERICENTER,MEAN_ANOMALY,EPHEMERIS_TYPE,CLASSIFICATION_TYPE,NORAD_CAT_ID,ELEMENT_SET_NO,REV_AT_EPOCH,BSTAR,MEAN_MOTION_DOT,MEAN_MOTION_DDOT
LEMUR-2-STARLIGHT,2025-276DY,2026-06-25T04:19:09.075360,14.99120149,.0014772,97.5246,246.5457,105.2884,254.9973,0,U,66783,999,3139,.60143E-3,.7273E-4,0
LEMUR-2-TARTIFLETTE,2025-276DZ,2026-06-25T04:16:47.108928,14.99135685,.0013726,97.5250,246.5516,112.1616,248.1065,0,U,66784,999,3139,.5006E-3,.6043E-4,0
LEMUR-2-VUKASIN,2025-276EA,2026-06-25T03:57:41.341248,15.00420110,.0005344,97.5300,246.8556,103.9516,256.2303,0,U,66785,999,3134,.11907E-3,.144E-4,0
LEMUR-2-HOTSPUR-TOM,2025-276EB,2026-06-25T04:06:52.549056,14.99035144,.0014883,97.5247,246.5245,104.5286,255.7589,0,U,66786,999,3132,.53249E-3,.6418E-4,0
LEMUR-2-MYRA,2025-276EC,2026-06-25T03:07:47.239968,15.00347696,.001752,97.5219,246.7508,115.7874,244.5160,0,U,66787,999,3140,.66072E-3,.8265E-4,0
LEMUR-2 FIKRETDENGIZ,2026-004A,2026-06-25T00:00:19.723392,14.88374851,.0010484,97.8016,174.4381,111.0764,249.1575,0,U,67363,999,2444,.45755E-3,.4188E-4,0
TWILIGHT-1 OBJECT B,2026-004B,2026-06-25T05:30:53.390304,14.87727880,.0010239,97.8064,174.6758,101.7744,258.4622,0,U,67364,999,2448,.20329E-3,.18E-4,0
LEMUR-2-MARIO-SOUSA,2026-004C,2026-06-24T23:35:17.401920,14.88568998,.001006,97.7987,174.4168,111.9509,248.2778,0,U,67365,999,2445,.46439E-3,.4272E-4,0
LEMUR-2-SONNENBLUME,2026-004E,2026-06-24T05:49:36.933312,14.88346819,.00095648,97.7984,173.6698,115.3972,244.8236,0,U,67367,999,2434,.23777568E-3,.2148E-4,0
LEMUR-2-WOBLER,2026-004F,2026-06-24T23:23:36.329856,14.88564181,.0009951,97.8040,174.5203,104.4876,255.7446,0,U,67368,999,2445,.38081E-3,.3493E-4,0
LEMUR-2-GRAM-E-SUE,2026-004H,2026-06-24T23:10:32.484000,14.88501650,.0008666,97.7975,174.3970,114.7177,245.4943,0,U,67370,999,2445,.23998E-3,.2176E-4,0
LEMUR-2-KATIE,2026-004AA,2026-06-25T00:17:01.394880,14.90091362,.0004767,97.8034,174.9271,76.9229,283.2520,0,U,67387,999,2447,.40011E-3,.3813E-4,0
LEMUR-2-HCS-BAZUS,2026-004AB,2026-06-24T22:38:43.214208,14.90136625,.0004262,97.8022,174.8399,75.6154,284.5536,0,U,67388,999,2446,.61912E-3,.5938E-4,0
