LEMUR-2-STARLIGHT       
1 66783U 25276DY  26176.17996615  .00007273  00000+0  60143-3 0  9993
2 66783  97.5246 246.5457 0014772 105.2884 254.9973 14.99120149 31392
LEMUR-2-TARTIFLETTE     
1 66784U 25276DZ  26176.17832302  .00006043  00000+0  50060-3 0  9997
2 66784  97.5250 246.5516 0013726 112.1616 248.1065 14.99135685 31390
LEMUR-2-VUKASIN         
1 66785U 25276EA  26176.16506182  .00001440  00000+0  11907-3 0  9994
2 66785  97.5300 246.8556 0005344 103.9516 256.2303 15.00420110 31341
LEMUR-2-HOTSPUR-TOM     
1 66786U 25276EB  26176.17144154  .00006418  00000+0  53249-3 0  9998
2 66786  97.5247 246.5245 0014883 104.5286 255.7589 14.99035144 31327
LEMUR-2-MYRA            
1 66787U 25276EC  26176.13040787  .00008265  00000+0  66072-3 0  9992
2 66787  97.5219 246.7508 0017520 115.7874 244.5160 15.00347696 31400
LEMUR-2 FIKRETDENGIZ    
1 67363U 26004A   26176.00022828  .00004188  00000+0  45755-3 0  9990
2 67363  97.8016 174.4381 0010484 111.0764 249.1575 14.88374851 24449
TWILIGHT-1 OBJECT B     
1 67364U 26004B   26176.22978461  .00001800  00000+0  20329-3 0  9996
2 67364  97.8064 174.6758 0010239 101.7744 258.4622 14.87727880 24488
LEMUR-2-MARIO-SOUSA     
1 67365U 26004C   26175.98284030  .00004272  00000+0  46439-3 0  9997
2 67365  97.7987 174.4168 0010060 111.9509 248.2778 14.88568998 24459
LEMUR-2-SONNENBLUME     
1 67367U 26004E   26175.24278858  .00002148  00000+0  23778-3 0  9990
2 67367  97.7984 173.6698 0009564 115.3972 244.8236 14.88346819 24341
LEMUR-2-WOBLER          
1 67368U 26004F   26175.97472604  .00003493  00000+0  38081-3 0  9993
2 67368  97.8040 174.5203 0009951 104.4876 255.7446 14.88564181 24450
LEMUR-2-GRAM-E-SUE      
1 67370U 26004H   26175.96565375  .00002176  00000+0  23998-3 0  9991
2 67370  97.7975 174.3970 0008666 114.7177 245.4943 14.88501650 24458
LEMUR-2-KATIE           
1 67387U 26004AA  26176.01182170  .00003813  00000+0  40011-3 0  9998
2 67387  97.8034 174.9271 0004767  76.9229 283.2520 14.90091362 24478
LEMUR-2-HCS-BAZUS       
1 67388U 26004AB  26175.94355572  .00005938  00000+0  61912-3 0  9991
2 67388  97.8022 174.8399 0004262  75.6154 284.5536 14.90136625 24461
